LEMUR-2-STARLIGHT       
1 66783U 25276DY  26167.43575847  .00004249  00000+0  35425-3 0  9997
2 66783  97.5266 238.1002 0015176 130.0565 230.1993 14.99035432 30081
LEMUR-2-TARTIFLETTE     
1 66784U 25276DZ  26167.70124998  .00004073  00000+0  33958-3 0  9999
2 66784  97.5269 238.3629 0014133 135.8290 224.4064 14.99067168 30123
LEMUR-2-VUKASIN         
1 66785U 25276EA  26167.42855991  .00004834  00000+0  38947-3 0  9991
2 66785  97.5310 238.3939 0006177 125.5082 234.6719 15.00361961 30030
LEMUR-2-HOTSPUR-TOM     
1 66786U 25276EB  26167.69378492  .00005001  00000+0  41682-3 0  9994
2 66786  97.5264 238.3374 0015522 129.3420 230.9182 14.98957438 30055
LEMUR-2-MYRA            
1 66787U 25276EC  26167.72676728  .00006580  00000+0  52877-3 0  9993
2 66787  97.5218 238.6228 0016540 142.8953 217.3418 15.00240617 30147
LEMUR-2 FIKRETDENGIZ    
1 67363U 26004A   26167.79816336  .00003445  00000+0  37790-3 0  9996
2 67363  97.8011 166.3621 0010078 134.2237 225.9809 14.88322174 23220
TWILIGHT-1 OBJECT B     
1 67364U 26004B   26167.75519796  .00001530  00000+0  17377-3 0  9995
2 67364  97.8061 166.3352 0009928 125.6836 234.5306 14.87700909 23221
LEMUR-2-MARIO-SOUSA     
1 67365U 26004C   26167.58016138  .00003092  00000+0  33829-3 0  9994
2 67365  97.7985 166.1438 0009633 135.4367 224.7626 14.88509480 23206
LEMUR-2-SONNENBLUME     
1 67367U 26004E   26167.57847316  .00001967  00000+0  21844-3 0  9998
2 67367  97.7981 166.1270 0009107 136.8564 223.3368 14.88313380 23208
LEMUR-2-WOBLER          
1 67368U 26004F   26167.57204314  .00002714  00000+0  29761-3 0  9991
2 67368  97.8036 166.2423 0009528 127.1917 233.0171 14.88513398 23205
LEMUR-2-GRAM-E-SUE      
1 67370U 26004H   26167.56267235  .00001795  00000+0  19912-3 0  9999
2 67370  97.7968 166.1265 0008148 137.4251 222.7599 14.88468982 23203
LEMUR-2-KATIE           
1 67387U 26004AA  26167.55060868  .00003130  00000+0  32984-3 0  9998
2 67387  97.8033 166.5718 0004864  94.5349 265.6425 14.90045308 23215
LEMUR-2-HCS-BAZUS       
1 67388U 26004AB  26167.75113582  .00004752  00000+0  49753-3 0  9996
2 67388  97.8018 166.7507 0004442  90.9849 269.1878 14.90067576 23249
